{
    "links": {
        "self": "http://www.neowsapp.com/rest/v1/neo/3467221?api_key=iIulBulltgU6a56xZRHN4H3l9WmuAYTsLGpBGhQ2"
    },
    "id": "3467221",
    "neo_reference_id": "3467221",
    "name": "(2009 SH1)",
    "designation": "2009 SH1",
    "nasa_jpl_url": "http://ssd.jpl.nasa.gov/sbdb.cgi?sstr=3467221",
    "absolute_magnitude_h": 29.4,
    "estimated_diameter": {
        "kilometers": {
            "estimated_diameter_min": 0.0035039264,
            "estimated_diameter_max": 0.0078350176
        },
        "meters": {
            "estimated_diameter_min": 3.5039264111,
            "estimated_diameter_max": 7.8350176433
        },
        "miles": {
            "estimated_diameter_min": 0.0021772383,
            "estimated_diameter_max": 0.0048684527
        },
        "feet": {
            "estimated_diameter_min": 11.4958219265,
            "estimated_diameter_max": 25.705439285
        }
    },
    "is_potentially_hazardous_asteroid": false,
    "close_approach_data": [
        {
            "close_approach_date": "2009-09-14",
            "close_approach_date_full": "2009-Sep-14 09:40",
            "epoch_date_close_approach": 1252921200000,
            "relative_velocity": {
                "kilometers_per_second": "8.1545888923",
                "kilometers_per_hour": "29356.5200122446",
                "miles_per_hour": "18240.9998931639"
            },
            "miss_distance": {
                "astronomical": "0.0082290197",
                "lunar": "3.2010886633",
                "kilometers": "1231043.819308039",
                "miles": "764935.1588033782"
            },
            "orbiting_body": "Moon"
        },
        {
            "close_approach_date": "2009-09-14",
            "close_approach_date_full": "2009-Sep-14 12:22",
            "epoch_date_close_approach": 1252930920000,
            "relative_velocity": {
                "kilometers_per_second": "7.1411272427",
                "kilometers_per_hour": "25708.0580736936",
                "miles_per_hour": "15973.9875291792"
            },
            "miss_distance": {
                "astronomical": "0.006134125",
                "lunar": "2.386174625",
                "kilometers": "917652.03431375",
                "miles": "570202.53347975"
            },
            "orbiting_body": "Earth"
        }
    ],
    "orbital_data": {
        "orbit_id": "6",
        "orbit_determination_date": "2017-04-06 09:00:00",
        "first_observation_date": "2009-09-18",
        "last_observation_date": "2009-09-18",
        "data_arc_in_days": null,
        "observations_used": 11,
        "orbit_uncertainty": "9",
        "minimum_orbit_intersection": ".00396751",
        "jupiter_tisserand_invariant": "5.273",
        "epoch_osculation": "2455092.5",
        "eccentricity": ".245685725984202",
        "semi_major_axis": "1.197702608673133",
        "inclination": "3.317321881366756",
        "ascending_node_longitude": "354.9256660311813",
        "orbital_period": "478.7644776680041",
        "perihelion_distance": ".9034441737481015",
        "perihelion_argument": "294.8176490887764",
        "aphelion_distance": "1.491961043598164",
        "perihelion_time": "2455037.041365725127",
        "mean_anomaly": "41.70131509380473",
        "mean_motion": ".7519354855930633",
        "equinox": "J2000",
        "orbit_class": {
            "orbit_class_type": "APO",
            "orbit_class_description": "Near-Earth asteroid orbits which cross the Earth’s orbit similar to that of 1862 Apollo",
            "orbit_class_range": "a (semi-major axis) > 1.0 AU; q (perihelion) < 1.017 AU"
        }
    },
    "is_sentry_object": false
}